[{"OBJECT_NAME":"ONEWEB-0521","OBJECT_ID":"2022-138AC","EPOCH":"2026-06-05T11:41:35.979072","MEAN_MOTION":13.19726757,"ECCENTRICITY":0.0002035,"INCLINATION":87.917,"RA_OF_ASC_NODE":307.2853,"ARG_OF_PERICENTER":94.0796,"MEAN_ANOMALY":266.057,"EPHEMERIS_TYPE":0,"CLASSIFICATION_TYPE":"U","NORAD_CAT_ID":54139,"ELEMENT_SET_NO":999,"REV_AT_EPOCH":17522,"BSTAR":-0.00012262000000000002,"MEAN_MOTION_DOT":-3.6e-07,"MEAN_MOTION_DDOT":0.0},{"OBJECT_NAME":"ONEWEB-0522","OBJECT_ID":"2022-138AD","EPOCH":"2026-06-05T16:39:33.645024","MEAN_MOTION":13.19725611,"ECCENTRICITY":0.000168,"INCLINATION":87.9173,"RA_OF_ASC_NODE":307.2466,"ARG_OF_PERICENTER":92.9991,"MEAN_ANOMALY":267.1334,"EPHEMERIS_TYPE":0,"CLASSIFICATION_TYPE":"U","NORAD_CAT_ID":54140,"ELEMENT_SET_NO":999,"REV_AT_EPOCH":17529,"BSTAR":-0.00043622,"MEAN_MOTION_DOT":-1.62e-06,"MEAN_MOTION_DDOT":0.0},{"OBJECT_NAME":"ONEWEB-0523","OBJECT_ID":"2022-138AE","EPOCH":"2026-06-05T14:09:39.442176","MEAN_MOTION":13.20770552,"ECCENTRICITY":0.0002733,"INCLINATION":87.919,"RA_OF_ASC_NODE":276.7514,"ARG_OF_PERICENTER":106.8373,"MEAN_ANOMALY":253.3061,"EPHEMERIS_TYPE":0,"CLASSIFICATION_TYPE":"U","NORAD_CAT_ID":54141,"ELEMENT_SET_NO":999,"REV_AT_EPOCH":17777,"BSTAR":0.00026689000000000004,"MEAN_MOTION_DOT":1.22e-06,"MEAN_MOTION_DDOT":0.0},{"OBJECT_NAME":"ONEWEB-0524","OBJECT_ID":"2022-138AF","EPOCH":"2026-06-05T19:22:23.219616","MEAN_MOTION":13.20770766,"ECCENTRICITY":0.0002208,"INCLINATION":87.9189,"RA_OF_ASC_NODE":276.7054,"ARG_OF_PERICENTER":123.8228,"MEAN_ANOMALY":236.3116,"EPHEMERIS_TYPE":0,"CLASSIFICATION_TYPE":"U","NORAD_CAT_ID":54142,"ELEMENT_SET_NO":999,"REV_AT_EPOCH":17780,"BSTAR":0.00014581,"MEAN_MOTION_DOT":7.2e-07,"MEAN_MOTION_DDOT":0.0},{"OBJECT_NAME":"ONEWEB-0525","OBJECT_ID":"2022-138AG","EPOCH":"2026-06-05T17:06:50.932800","MEAN_MOTION":13.19724719,"ECCENTRICITY":0.0001408,"INCLINATION":87.9168,"RA_OF_ASC_NODE":307.2509,"ARG_OF_PERICENTER":96.8717,"MEAN_ANOMALY":263.2576,"EPHEMERIS_TYPE":0,"CLASSIFICATION_TYPE":"U","NORAD_CAT_ID":54143,"ELEMENT_SET_NO":999,"REV_AT_EPOCH":17531,"BSTAR":-4.959100000000001e-05,"MEAN_MOTION_DOT":-7e-08,"MEAN_MOTION_DDOT":0.0},{"OBJECT_NAME":"ONEWEB-0526","OBJECT_ID":"2022-138AH","EPOCH":"2026-06-05T16:05:27.134016","MEAN_MOTION":13.19730596,"ECCENTRICITY":0.0001729,"INCLINATION":87.9167,"RA_OF_ASC_NODE":307.2594,"ARG_OF_PERICENTER":98.7793,"MEAN_ANOMALY":261.3535,"EPHEMERIS_TYPE":0,"CLASSIFICATION_TYPE":"U","NORAD_CAT_ID":54144,"ELEMENT_SET_NO":999,"REV_AT_EPOCH":17528,"BSTAR":0.00022914999999999999,"MEAN_MOTION_DOT":1.05e-06,"MEAN_MOTION_DDOT":0.0},{"OBJECT_NAME":"ONEWEB-0529","OBJECT_ID":"2022-138AJ","EPOCH":"2026-06-05T10:42:27.188064","MEAN_MOTION":13.19726576,"ECCENTRICITY":0.0001585,"INCLINATION":87.9167,"RA_OF_ASC_NODE":307.3157,"ARG_OF_PERICENTER":96.8017,"MEAN_ANOMALY":263.3297,"EPHEMERIS_TYPE":0,"CLASSIFICATION_TYPE":"U","NORAD_CAT_ID":54145,"ELEMENT_SET_NO":999,"REV_AT_EPOCH":17527,"BSTAR":-0.00018918,"MEAN_MOTION_DOT":-6.3e-07,"MEAN_MOTION_DDOT":0.0},{"OBJECT_NAME":"ONEWEB-0531","OBJECT_ID":"2022-138AK","EPOCH":"2026-06-05T13:35:44.635776","MEAN_MOTION":13.20772378,"ECCENTRICITY":0.0002684,"INCLINATION":87.9192,"RA_OF_ASC_NODE":276.7514,"ARG_OF_PERICENTER":113.4991,"MEAN_ANOMALY":246.6424,"EPHEMERIS_TYPE":0,"CLASSIFICATION_TYPE":"U","NORAD_CAT_ID":54146,"ELEMENT_SET_NO":999,"REV_AT_EPOCH":17777,"BSTAR":-0.00010856,"MEAN_MOTION_DOT":-3.1e-07,"MEAN_MOTION_DDOT":0.0},{"OBJECT_NAME":"ONEWEB-0535","OBJECT_ID":"2022-138AL","EPOCH":"2026-06-05T16:57:44.852832","MEAN_MOTION":13.19724809,"ECCENTRICITY":0.0002154,"INCLINATION":87.9166,"RA_OF_ASC_NODE":307.2458,"ARG_OF_PERICENTER":97.845,"MEAN_ANOMALY":262.2927,"EPHEMERIS_TYPE":0,"CLASSIFICATION_TYPE":"U","NORAD_CAT_ID":54147,"ELEMENT_SET_NO":999,"REV_AT_EPOCH":17532,"BSTAR":0.00014238,"MEAN_MOTION_DOT":7e-07,"MEAN_MOTION_DDOT":0.0},{"OBJECT_NAME":"ONEWEB-0536","OBJECT_ID":"2022-138AM","EPOCH":"2026-06-05T15:05:25.353888","MEAN_MOTION":13.20758411,"ECCENTRICITY":0.000278,"INCLINATION":87.9189,"RA_OF_ASC_NODE":276.7627,"ARG_OF_PERICENTER":117.3301,"MEAN_ANOMALY":242.8115,"EPHEMERIS_TYPE":0,"CLASSIFICATION_TYPE":"U","NORAD_CAT_ID":54148,"ELEMENT_SET_NO":999,"REV_AT_EPOCH":17777,"BSTAR":0.0058847000000000005,"MEAN_MOTION_DOT":2.406e-05,"MEAN_MOTION_DDOT":0.0},{"OBJECT_NAME":"ONEWEB-0527","OBJECT_ID":"2022-166A","EPOCH":"2026-06-05T20:00:04.000032","MEAN_MOTION":13.20251011,"ECCENTRICITY":0.0002093,"INCLINATION":87.9255,"RA_OF_ASC_NODE":246.2458,"ARG_OF_PERICENTER":99.0238,"MEAN_ANOMALY":335.5777,"EPHEMERIS_TYPE":0,"CLASSIFICATION_TYPE":"U","NORAD_CAT_ID":54642,"ELEMENT_SET_NO":999,"REV_AT_EPOCH":514,"BSTAR":-0.099298,"MEAN_MOTION_DOT":-0.00039876,"MEAN_MOTION_DDOT":0.0},{"OBJECT_NAME":"ONEWEB-0528","OBJECT_ID":"2022-166B","EPOCH":"2026-06-04T16:29:01.261824","MEAN_MOTION":13.21750757,"ECCENTRICITY":0.000124,"INCLINATION":87.9252,"RA_OF_ASC_NODE":246.4871,"ARG_OF_PERICENTER":66.4305,"MEAN_ANOMALY":293.6959,"EPHEMERIS_TYPE":0,"CLASSIFICATION_TYPE":"U","NORAD_CAT_ID":54643,"ELEMENT_SET_NO":999,"REV_AT_EPOCH":16989,"BSTAR":-0.021712000000000002,"MEAN_MOTION_DOT":-8.935e-05,"MEAN_MOTION_DDOT":0.0},{"OBJECT_NAME":"ONEWEB-0539","OBJECT_ID":"2022-166C","EPOCH":"2026-06-05T11:34:38.794080","MEAN_MOTION":13.21825992,"ECCENTRICITY":0.0002051,"INCLINATION":87.9263,"RA_OF_ASC_NODE":246.2992,"ARG_OF_PERICENTER":94.2257,"MEAN_ANOMALY":265.9111,"EPHEMERIS_TYPE":0,"CLASSIFICATION_TYPE":"U","NORAD_CAT_ID":54644,"ELEMENT_SET_NO":999,"REV_AT_EPOCH":16999,"BSTAR":-0.00011941000000000001,"MEAN_MOTION_DOT":-3.6e-07,"MEAN_MOTION_DDOT":0.0},{"OBJECT_NAME":"ONEWEB-0540","OBJECT_ID":"2022-166D","EPOCH":"2026-06-05T11:44:31.708032","MEAN_MOTION":13.2182645,"ECCENTRICITY":0.0002038,"INCLINATION":87.9257,"RA_OF_ASC_NODE":246.3286,"ARG_OF_PERICENTER":97.278,"MEAN_ANOMALY":262.8586,"EPHEMERIS_TYPE":0,"CLASSIFICATION_TYPE":"U","NORAD_CAT_ID":54645,"ELEMENT_SET_NO":999,"REV_AT_EPOCH":16998,"BSTAR":0.0001842,"MEAN_MOTION_DOT":8.9e-07,"MEAN_MOTION_DDOT":0.0},{"OBJECT_NAME":"ONEWEB-0542","OBJECT_ID":"2022-166E","EPOCH":"2026-06-05T11:49:10.480224","MEAN_MOTION":13.21827375,"ECCENTRICITY":0.0002111,"INCLINATION":87.9266,"RA_OF_ASC_NODE":246.2955,"ARG_OF_PERICENTER":91.7753,"MEAN_ANOMALY":268.3622,"EPHEMERIS_TYPE":0,"CLASSIFICATION_TYPE":"U","NORAD_CAT_ID":54646,"ELEMENT_SET_NO":999,"REV_AT_EPOCH":16999,"BSTAR":0.00014889,"MEAN_MOTION_DOT":7.5e-07,"MEAN_MOTION_DDOT":0.0},{"OBJECT_NAME":"ONEWEB-0545","OBJECT_ID":"2022-166F","EPOCH":"2026-06-04T05:54:15.623424","MEAN_MOTION":13.21828055,"ECCENTRICITY":0.0002353,"INCLINATION":87.9255,"RA_OF_ASC_NODE":246.5563,"ARG_OF_PERICENTER":90.722,"MEAN_ANOMALY":269.4184,"EPHEMERIS_TYPE":0,"CLASSIFICATION_TYPE":"U","NORAD_CAT_ID":54647,"ELEMENT_SET_NO":999,"REV_AT_EPOCH":16979,"BSTAR":1.6372000000000002e-05,"MEAN_MOTION_DOT":2e-07,"MEAN_MOTION_DDOT":0.0}]